ONEWEB-0340             
1 49206U 21083W   26196.89071222 -.00000065  00000+0 -19813-3 0  9997
2 49206  87.9198 329.7484 0001874  94.2470 265.8876 13.18687403233751
ONEWEB-0341             
1 49207U 21083X   26196.89745080 -.00000058  00000+0 -17935-3 0  9993
2 49207  87.9192 329.7485 0002312  90.2001 269.9396 13.18687632233779
ONEWEB-0342             
1 49208U 21083Y   26196.75966496  .00000075  00000+0  15148-3 0  9996
2 49208  87.9188 268.7435 0002137 100.5452 259.5922 13.20772530240551
ONEWEB-0343             
1 49209U 21083Z   26196.90588638 -.00000028  00000+0 -10273-3 0  9996
2 49209  87.9193 329.7453 0002208 105.0003 255.1374 13.18687792233824
ONEWEB-0344             
1 49210U 21083AA  26196.83879501  .00000005  00000+0 -22412-4 0  9995
2 49210  87.8977 314.5367 0002263  92.1483 267.9905 13.13469316234658
ONEWEB-0345             
1 49211U 21083AB  26196.75416129 -.00000139  00000+0 -41572-3 0  9996
2 49211  87.8986 314.5385 0002229  94.5022 265.6362 13.13470018234659
ONEWEB-0346             
1 49212U 21083AC  26196.90251274 -.00000039  00000+0 -13122-3 0  9991
2 49212  87.9190 329.7453 0001519  77.3072 282.8230 13.18687665233766
ONEWEB-0348             
1 49213U 21083AD  26196.74956791  .00000063  00000+0  12261-3 0  9998
2 49213  87.9187 268.7498 0002100  82.7506 277.3867 13.20772248240581
ONEWEB-0350             
1 49214U 21083AE  26196.84909361  .00000288  00000+0  75352-3 0  9990
2 49214  87.8983 314.5245 0001629 133.6886 226.4379 13.13471839234699
ONEWEB-0351             
1 49215U 21083AF  26196.59117779 -.00000334  00000+0 -85459-3 0  9990
2 49215  87.9191 268.7805 0002509 103.0225 257.1189 13.20772181240521
ONEWEB-0352             
1 49216U 21083AG  26196.82018016 -.00000303  00000+0 -86459-3 0  9998
2 49216  87.8978 314.5346 0002293 106.6505 253.4876 13.13469635234786
ONEWEB-0354             
1 49217U 21083AH  26196.16371295  .00000131  00000+0  28950-3 0  9996
2 49217  87.9186 268.8643 0002189  88.1248 272.0136 13.20771080240503
ONEWEB-0355             
1 49218U 21083AJ  26196.84978545  .00000128  00000+0  31468-3 0  9997
2 49218  87.8977 314.5294 0002144 100.0575 260.0796 13.13468734234660
ONEWEB-0357             
1 49219U 21083AK  26196.76639246  .00000134  00000+0  29879-3 0  9991
2 49219  87.9185 268.7379 0002248 101.0479 259.0907 13.20770139240589
ONEWEB-0332             
1 49279U 21090A   26196.76280641  .00000221  00000+0  56251-3 0  9997
2 49279  87.8967 284.0155 0002006 106.0694 254.0657 13.14503525231337
ONEWEB-0347             
1 49280U 21090B   26196.22599648  .00000104  00000+0  22380-3 0  9996
2 49280  87.9185 268.8534 0001998 105.8798 254.2556 13.20769708234746
