{"fetched_at":"2026-07-16T06:42:33.601Z","source":"https://celestrak.org/NORAD/elements/gp.php?GROUP=oneweb&FORMAT=JSON","constellation":"oneweb","records":[{"OBJECT_NAME":"ONEWEB-0340","OBJECT_ID":"2021-083W","EPOCH":"2026-07-15T21:22:37.535808","CLASSIFICATION_TYPE":"U","MEAN_MOTION":13.18687403,"ECCENTRICITY":0.00018747,"INCLINATION":87.9198,"RA_OF_ASC_NODE":329.7484,"ARG_OF_PERICENTER":94.247,"MEAN_ANOMALY":265.8876,"EPHEMERIS_TYPE":0,"NORAD_CAT_ID":49206,"ELEMENT_SET_NO":999,"REV_AT_EPOCH":23375,"BSTAR":-0.00019813429,"MEAN_MOTION_DOT":-6.5e-7,"MEAN_MOTION_DDOT":0},{"OBJECT_NAME":"ONEWEB-0341","OBJECT_ID":"2021-083X","EPOCH":"2026-07-15T21:32:19.749120","CLASSIFICATION_TYPE":"U","MEAN_MOTION":13.18687632,"ECCENTRICITY":0.0002312,"INCLINATION":87.9192,"RA_OF_ASC_NODE":329.7485,"ARG_OF_PERICENTER":90.2001,"MEAN_ANOMALY":269.9396,"EPHEMERIS_TYPE":0,"NORAD_CAT_ID":49207,"ELEMENT_SET_NO":999,"REV_AT_EPOCH":23377,"BSTAR":-0.0001793549,"MEAN_MOTION_DOT":-5.8e-7,"MEAN_MOTION_DDOT":0},{"OBJECT_NAME":"ONEWEB-0342","OBJECT_ID":"2021-083Y","EPOCH":"2026-07-15T18:13:55.052544","CLASSIFICATION_TYPE":"U","MEAN_MOTION":13.2077253,"ECCENTRICITY":0.00021376,"INCLINATION":87.9188,"RA_OF_ASC_NODE":268.7435,"ARG_OF_PERICENTER":100.5452,"MEAN_ANOMALY":259.5922,"EPHEMERIS_TYPE":0,"NORAD_CAT_ID":49208,"ELEMENT_SET_NO":999,"REV_AT_EPOCH":24055,"BSTAR":0.00015148003,"MEAN_MOTION_DOT":7.5e-7,"MEAN_MOTION_DDOT":0},{"OBJECT_NAME":"ONEWEB-0343","OBJECT_ID":"2021-083Z","EPOCH":"2026-07-15T21:44:28.583232","CLASSIFICATION_TYPE":"U","MEAN_MOTION":13.18687792,"ECCENTRICITY":0.00022089,"INCLINATION":87.9193,"RA_OF_ASC_NODE":329.7453,"ARG_OF_PERICENTER":105.0003,"MEAN_ANOMALY":255.1374,"EPHEMERIS_TYPE":0,"NORAD_CAT_ID":49209,"ELEMENT_SET_NO":999,"REV_AT_EPOCH":23382,"BSTAR":-0.00010273466,"MEAN_MOTION_DOT":-2.8e-7,"MEAN_MOTION_DDOT":0},{"OBJECT_NAME":"ONEWEB-0344","OBJECT_ID":"2021-083AA","EPOCH":"2026-07-15T20:07:51.888864","CLASSIFICATION_TYPE":"U","MEAN_MOTION":13.13469316,"ECCENTRICITY":0.00022633,"INCLINATION":87.8977,"RA_OF_ASC_NODE":314.5367,"ARG_OF_PERICENTER":92.1483,"MEAN_ANOMALY":267.9905,"EPHEMERIS_TYPE":0,"NORAD_CAT_ID":49210,"ELEMENT_SET_NO":999,"REV_AT_EPOCH":23465,"BSTAR":-0.00002241248,"MEAN_MOTION_DOT":5e-8,"MEAN_MOTION_DDOT":0},{"OBJECT_NAME":"ONEWEB-0345","OBJECT_ID":"2021-083AB","EPOCH":"2026-07-15T18:05:59.535456","CLASSIFICATION_TYPE":"U","MEAN_MOTION":13.13470018,"ECCENTRICITY":0.00022293,"INCLINATION":87.8986,"RA_OF_ASC_NODE":314.5385,"ARG_OF_PERICENTER":94.5022,"MEAN_ANOMALY":265.6362,"EPHEMERIS_TYPE":0,"NORAD_CAT_ID":49211,"ELEMENT_SET_NO":999,"REV_AT_EPOCH":23465,"BSTAR":-0.00041572347,"MEAN_MOTION_DOT":-0.00000139,"MEAN_MOTION_DDOT":0},{"OBJECT_NAME":"ONEWEB-0346","OBJECT_ID":"2021-083AC","EPOCH":"2026-07-15T21:39:37.100736","CLASSIFICATION_TYPE":"U","MEAN_MOTION":13.18687665,"ECCENTRICITY":0.00015198,"INCLINATION":87.919,"RA_OF_ASC_NODE":329.7453,"ARG_OF_PERICENTER":77.3072,"MEAN_ANOMALY":282.823,"EPHEMERIS_TYPE":0,"NORAD_CAT_ID":49212,"ELEMENT_SET_NO":999,"REV_AT_EPOCH":23376,"BSTAR":-0.00013121668,"MEAN_MOTION_DOT":-3.9e-7,"MEAN_MOTION_DDOT":0},{"OBJECT_NAME":"ONEWEB-0348","OBJECT_ID":"2021-083AD","EPOCH":"2026-07-15T17:59:22.667424","CLASSIFICATION_TYPE":"U","MEAN_MOTION":13.20772248,"ECCENTRICITY":0.00021006,"INCLINATION":87.9187,"RA_OF_ASC_NODE":268.7498,"ARG_OF_PERICENTER":82.7506,"MEAN_ANOMALY":277.3867,"EPHEMERIS_TYPE":0,"NORAD_CAT_ID":49213,"ELEMENT_SET_NO":999,"REV_AT_EPOCH":24058,"BSTAR":0.00012260667,"MEAN_MOTION_DOT":6.3e-7,"MEAN_MOTION_DDOT":0},{"OBJECT_NAME":"ONEWEB-0350","OBJECT_ID":"2021-083AE","EPOCH":"2026-07-15T20:22:41.687904","CLASSIFICATION_TYPE":"U","MEAN_MOTION":13.13471839,"ECCENTRICITY":0.0001629,"INCLINATION":87.8983,"RA_OF_ASC_NODE":314.5245,"ARG_OF_PERICENTER":133.6886,"MEAN_ANOMALY":226.4379,"EPHEMERIS_TYPE":0,"NORAD_CAT_ID":49214,"ELEMENT_SET_NO":999,"REV_AT_EPOCH":23469,"BSTAR":0.00075351904,"MEAN_MOTION_DOT":0.00000288,"MEAN_MOTION_DDOT":0},{"OBJECT_NAME":"ONEWEB-0351","OBJECT_ID":"2021-083AF","EPOCH":"2026-07-15T14:11:17.761056","CLASSIFICATION_TYPE":"U","MEAN_MOTION":13.20772181,"ECCENTRICITY":0.00025095,"INCLINATION":87.9191,"RA_OF_ASC_NODE":268.7805,"ARG_OF_PERICENTER":103.0225,"MEAN_ANOMALY":257.1189,"EPHEMERIS_TYPE":0,"NORAD_CAT_ID":49215,"ELEMENT_SET_NO":999,"REV_AT_EPOCH":24052,"BSTAR":-0.00085459395,"MEAN_MOTION_DOT":-0.00000334,"MEAN_MOTION_DDOT":0},{"OBJECT_NAME":"ONEWEB-0352","OBJECT_ID":"2021-083AG","EPOCH":"2026-07-15T19:41:03.565824","CLASSIFICATION_TYPE":"U","MEAN_MOTION":13.13469635,"ECCENTRICITY":0.0002293,"INCLINATION":87.8978,"RA_OF_ASC_NODE":314.5346,"ARG_OF_PERICENTER":106.6505,"MEAN_ANOMALY":253.4876,"EPHEMERIS_TYPE":0,"NORAD_CAT_ID":49216,"ELEMENT_SET_NO":999,"REV_AT_EPOCH":23478,"BSTAR":-0.00086458532,"MEAN_MOTION_DOT":-0.00000303,"MEAN_MOTION_DDOT":0},{"OBJECT_NAME":"ONEWEB-0354","OBJECT_ID":"2021-083AH","EPOCH":"2026-07-15T03:55:44.798880","CLASSIFICATION_TYPE":"U","MEAN_MOTION":13.2077108,"ECCENTRICITY":0.00021898,"INCLINATION":87.9186,"RA_OF_ASC_NODE":268.8643,"ARG_OF_PERICENTER":88.1248,"MEAN_ANOMALY":272.0136,"EPHEMERIS_TYPE":0,"NORAD_CAT_ID":49217,"ELEMENT_SET_NO":999,"REV_AT_EPOCH":24050,"BSTAR":0.0002895044,"MEAN_MOTION_DOT":0.00000131,"MEAN_MOTION_DDOT":0},{"OBJECT_NAME":"ONEWEB-0355","OBJECT_ID":"2021-083AJ","EPOCH":"2026-07-15T20:23:41.462880","CLASSIFICATION_TYPE":"U","MEAN_MOTION":13.13468734,"ECCENTRICITY":0.00021443,"INCLINATION":87.8977,"RA_OF_ASC_NODE":314.5294,"ARG_OF_PERICENTER":100.0575,"MEAN_ANOMALY":260.0796,"EPHEMERIS_TYPE":0,"NORAD_CAT_ID":49218,"ELEMENT_SET_NO":999,"REV_AT_EPOCH":23466,"BSTAR":0.00031467675,"MEAN_MOTION_DOT":0.00000128,"MEAN_MOTION_DDOT":0},{"OBJECT_NAME":"ONEWEB-0357","OBJECT_ID":"2021-083AK","EPOCH":"2026-07-15T18:23:36.308544","CLASSIFICATION_TYPE":"U","MEAN_MOTION":13.20770139,"ECCENTRICITY":0.0002248,"INCLINATION":87.9185,"RA_OF_ASC_NODE":268.7379,"ARG_OF_PERICENTER":101.0479,"MEAN_ANOMALY":259.0907,"EPHEMERIS_TYPE":0,"NORAD_CAT_ID":49219,"ELEMENT_SET_NO":999,"REV_AT_EPOCH":24058,"BSTAR":0.00029879183,"MEAN_MOTION_DOT":0.00000134,"MEAN_MOTION_DDOT":0},{"OBJECT_NAME":"ONEWEB-0332","OBJECT_ID":"2021-090A","EPOCH":"2026-07-15T18:18:26.473824","CLASSIFICATION_TYPE":"U","MEAN_MOTION":13.14503525,"ECCENTRICITY":0.00020068,"INCLINATION":87.8967,"RA_OF_ASC_NODE":284.0155,"ARG_OF_PERICENTER":106.0694,"MEAN_ANOMALY":254.0657,"EPHEMERIS_TYPE":0,"NORAD_CAT_ID":49279,"ELEMENT_SET_NO":999,"REV_AT_EPOCH":23133,"BSTAR":0.0005625148,"MEAN_MOTION_DOT":0.00000221,"MEAN_MOTION_DDOT":0},{"OBJECT_NAME":"ONEWEB-0347","OBJECT_ID":"2021-090B","EPOCH":"2026-07-15T05:25:26.095872","CLASSIFICATION_TYPE":"U","MEAN_MOTION":13.20769708,"ECCENTRICITY":0.00019981,"INCLINATION":87.9185,"RA_OF_ASC_NODE":268.8534,"ARG_OF_PERICENTER":105.8798,"MEAN_ANOMALY":254.2556,"EPHEMERIS_TYPE":0,"NORAD_CAT_ID":49280,"ELEMENT_SET_NO":999,"REV_AT_EPOCH":23474,"BSTAR":0.00022380226,"MEAN_MOTION_DOT":0.00000104,"MEAN_MOTION_DDOT":0}]}
